HULIANWANG DIGUI-146    
1 67522U 26013A   26048.08945574 -.00000049  00000+0  99909-4 0  9999
2 67522  50.0138  70.9853 0001174 284.3249  75.7511 13.71254632  4002
HULIANWANG DIGUI-147    
1 67523U 26013B   26048.01405116 -.00000041  00000+0  10789-3 0  9996
2 67523  50.0051  71.2411 0001745  38.6205 321.4810 13.72092333  3996
HULIANWANG DIGUI-148    
1 67524U 26013C   26048.08153465 -.00000036  00000+0  11431-3 0  9990
2 67524  50.0073  70.9440 0000472 211.0579 149.0283 13.71612073  4005
HULIANWANG DIGUI-149    
1 67525U 26013D   26048.07676856 -.00000032  00000+0  11759-3 0  9993
2 67525  50.0262  70.9376 0000376 306.1161  53.9695 13.71759792  4000
HULIANWANG DIGUI-150    
1 67526U 26013E   26048.06863985 -.00000030  00000+0  11952-3 0  9997
2 67526  50.0080  70.8629 0000774  45.5065 314.5889 13.71967949  4026
HULIANWANG DIGUI-151    
1 67527U 26013F   26047.98670161 -.00000016  00000+0  13337-3 0  9993
2 67527  50.0184  71.1332 0002505 285.6578  74.4037 13.73063879  3990
HULIANWANG DIGUI-152    
1 67528U 26013G   26048.06620403 -.00000026  00000+0  12415-3 0  9995
2 67528  50.0226  70.8564 0000648 176.3181 183.7715 13.72349036  4004
HULIANWANG DIGUI-153    
1 67529U 26013H   26047.98434913 -.00000111  00000+0  30925-4 0  9997
2 67529  50.0094  71.0901 0002284 264.9353  95.1278 13.73143157  3982
HULIANWANG DIGUI-154    
1 67530U 26013J   26048.05402980  .00000021  00000+0  17345-3 0  9996
2 67530  50.0097  70.7943 0001295 191.3716 168.7146 13.72845058  3996
CZ-12 R/B               
1 67531U 26013K   26044.30903653 -.00000106  00000+0  24917-4 0  9993
2 67531  49.9940  81.6091 0069052 213.8608 145.7882 14.14458025  3534
STARLINK-36587          
1 67532U 26014A   26048.79932250  .00235082  00000+0  11897-2 0  9990
2 67532  97.2845 292.7736 0001574 106.9948 253.1493 15.80918681  5447
STARLINK-36417          
1 67533U 26014B   26048.65184671  .00174639  00000+0  11449-2 0  9995
2 67533  97.2831 292.5124 0002536 100.7649 259.3902 15.75249810  5416
